{"type": "FeatureCollection", "features": [ {"type": "Feature", "properties": {"norad_id": 28649, "name": "IRS-P5 (CARTOSAT-1)", "group": "resource", "lat": 7.605979276402499, "lon": -175.7371344084614, "alt_km": 599.4800367580165, "timestamp": "2025-12-02T08:59:32.376037+00:00", "meta": {"OBJECT_NAME": "IRS-P5 (CARTOSAT-1)", "OBJECT_ID": "2005-017A", "EPOCH": "2025-12-02T01:46:36.348384", "MEAN_MOTION": 14.90343635, "ECCENTRICITY": 0.0001834, "INCLINATION": 97.5508, "RA_OF_ASC_NODE": 2.9606, "ARG_OF_PERICENTER": 54.2083, "MEAN_ANOMALY": 305.9306, "EPHEMERIS_TYPE": 0, "CLASSIFICATION_TYPE": "U", "NORAD_CAT_ID": 28649, "ELEMENT_SET_NO": 999, "REV_AT_EPOCH": 11445, "BSTAR": 0.00021174, "MEAN_MOTION_DOT": 2.007e-05, "MEAN_MOTION_DDOT": 0}, "tle": {"line1": "1 28649U 05017A   25336.07403181  .00002007  00000+0  21174-3 0  9991", "line2": "2 28649  97.5508   2.9606 0001834  54.2083 305.9306 14.90343635114455"}}, "geometry": {"type": "Point", "coordinates": [-175.7371344084614, 7.605979276402499]}}, {"type": "Feature", "properties": {"norad_id": 28893, "name": "SINAH 1", "group": "resource", "lat": 67.80425743171607, "lon": 84.04777270887611, "alt_km": 675.4456548174821, "timestamp": "2025-12-02T08:59:32.376048+00:00", "meta": {"OBJECT_NAME": "SINAH 1", "OBJECT_ID": "2005-043D", "EPOCH": "2025-12-02T03:45:18.131040", "MEAN_MOTION": 14.6394238, "ECCENTRICITY": 0.0014746, "INCLINATION": 98.2598, "RA_OF_ASC_NODE": 104.6859, "ARG_OF_PERICENTER": 168.8749, "MEAN_ANOMALY": 191.2782, "EPHEMERIS_TYPE": 0, "CLASSIFICATION_TYPE": "U", "NORAD_CAT_ID": 28893, "ELEMENT_SET_NO": 999, "REV_AT_EPOCH": 7169, "BSTAR": 0.00012995, "MEAN_MOTION_DOT": 6.32e-06, "MEAN_MOTION_DDOT": 0}, "tle": {"line1": "1 28893U 05043D   25336.15645985  .00000632  00000+0  12995-3 0  9993", "line2": "2 28893  98.2598 104.6859 0014746 168.8749 191.2782 14.63942380 71694"}}, "geometry": {"type": "Point", "coordinates": [84.04777270887611, 67.80425743171607]}}, {"type": "Feature", "properties": {"norad_id": 29079, "name": "EROS B", "group": "resource", "lat": -47.67401594791588, "lon": -95.66145763150034, "alt_km": 380.39216174232024, "timestamp": "2025-12-02T08:59:32.376058+00:00", "meta": {"OBJECT_NAME": "EROS B", "OBJECT_ID": "2006-014A", "EPOCH": "2025-12-02T04:56:57.890976", "MEAN_MOTION": 15.64254809, "ECCENTRICITY": 0.0002566, "INCLINATION": 97.3487, "RA_OF_ASC_NODE": 92.3097, "ARG_OF_PERICENTER": 232.4161, "MEAN_ANOMALY": 127.6866, "EPHEMERIS_TYPE": 0, "CLASSIFICATION_TYPE": "U", "NORAD_CAT_ID": 29079, "ELEMENT_SET_NO": 999, "REV_AT_EPOCH": 8915, "BSTAR": 0.0016451, "MEAN_MOTION_DOT": 0.00159297, "MEAN_MOTION_DDOT": 0}, "tle": {"line1": "1 29079U 06014A   25336.20622559  .00159297  00000+0  16451-2 0  9999", "line2": "2 29079  97.3487  92.3097 0002566 232.4161 127.6866 15.64254809 89158"}}, "geometry": {"type": "Point", "coordinates": [-95.66145763150034, -47.67401594791588]}}, {"type": "Feature", "properties": {"norad_id": 29228, "name": "RESURS-DK 1", "group": "resource", "lat": -19.238684706007817, "lon": 121.29183513129327, "alt_km": 532.955442832158, "timestamp": "2025-12-02T08:59:32.376069+00:00", "meta": {"OBJECT_NAME": "RESURS-DK 1", "OBJECT_ID": "2006-021A", "EPOCH": "2025-12-01T20:22:52.938048", "MEAN_MOTION": 15.12058271, "ECCENTRICITY": 0.0007821, "INCLINATION": 69.9322, "RA_OF_ASC_NODE": 129.9787, "ARG_OF_PERICENTER": 266.5808, "MEAN_ANOMALY": 93.4463, "EPHEMERIS_TYPE": 0, "CLASSIFICATION_TYPE": "U", "NORAD_CAT_ID": 29228, "ELEMENT_SET_NO": 999, "REV_AT_EPOCH": 7273, "BSTAR": 0.00020679, "MEAN_MOTION_DOT": 3.46e-05, "MEAN_MOTION_DDOT": 0}, "tle": {"line1": "1 29228U 06021A   25335.84922382  .00003460  00000+0  20679-3 0  9997", "line2": "2 29228  69.9322 129.9787 0007821 266.5808  93.4463 15.12058271 72732"}}, "geometry": {"type": "Point", "coordinates": [121.29183513129327, -19.238684706007817]}}, {"type": "Feature", "properties": {"norad_id": 29268, "name": "ARIRANG-2 (KOMPSAT-2)", "group": "resource", "lat": -44.12614396286781, "lon": 173.0194908314003, "alt_km": 676.6664675831507, "timestamp": "2025-12-02T08:59:32.376080+00:00", "meta": {"OBJECT_NAME": "ARIRANG-2 (KOMPSAT-2)", "OBJECT_ID": "2006-031A", "EPOCH": "2025-12-02T04:53:48.852096", "MEAN_MOTION": 14.644781, "ECCENTRICITY": 0.001409, "INCLINATION": 97.8265, "RA_OF_ASC_NODE": 165.1904, "ARG_OF_PERICENTER": 343.942, "MEAN_ANOMALY": 152.4664, "EPHEMERIS_TYPE": 0, "CLASSIFICATION_TYPE": "U", "NORAD_CAT_ID": 29268, "ELEMENT_SET_NO": 999, "REV_AT_EPOCH": 3264, "BSTAR": 0.00010066, "MEAN_MOTION_DOT": 4.89e-06, "MEAN_MOTION_DDOT": 0}, "tle": {"line1": "1 29268U 06031A   25336.20403764  .00000489  00000+0  10066-3 0  9998", "line2": "2 29268  97.8265 165.1904 0014090 343.9420 152.4664 14.64478100 32649"}}, "geometry": {"type": "Point", "coordinates": [173.0194908314003, -44.12614396286781]}}, {"type": "Feature", "properties": {"norad_id": 29709, "name": "LAPAN-TUBSAT", "group": "resource", "lat": -1.1990897807644738, "lon": 146.1471751369202, "alt_km": 612.5101824668072, "timestamp": "2025-12-02T08:59:32.376091+00:00", "meta": {"OBJECT_NAME": "LAPAN-TUBSAT", "OBJECT_ID": "2007-001A", "EPOCH": "2025-12-01T20:51:57.570912", "MEAN_MOTION": 14.85643264, "ECCENTRICITY": 0.0013567, "INCLINATION": 98.1251, "RA_OF_ASC_NODE": 325.8029, "ARG_OF_PERICENTER": 106.2693, "MEAN_ANOMALY": 254.0014, "EPHEMERIS_TYPE": 0, "CLASSIFICATION_TYPE": "U", "NORAD_CAT_ID": 29709, "ELEMENT_SET_NO": 999, "REV_AT_EPOCH": 2185, "BSTAR": 9.3658e-05, "MEAN_MOTION_DOT": 7.55e-06, "MEAN_MOTION_DDOT": 0}, "tle": {"line1": "1 29709U 07001A   25335.86941633  .00000755  00000+0  93658-4 0  9994", "line2": "2 29709  98.1251 325.8029 0013567 106.2693 254.0014 14.85643264 21858"}}, "geometry": {"type": "Point", "coordinates": [146.1471751369202, -1.1990897807644738]}}, {"type": "Feature", "properties": {"norad_id": 31113, "name": "HAIYANG-1B", "group": "resource", "lat": -55.22836548874416, "lon": -26.734818604321365, "alt_km": 801.1729245784873, "timestamp": "2025-12-02T08:59:32.376102+00:00", "meta": {"OBJECT_NAME": "HAIYANG-1B", "OBJECT_ID": "2007-010A", "EPOCH": "2025-12-01T19:49:44.090400", "MEAN_MOTION": 14.30958911, "ECCENTRICITY": 0.0014618, "INCLINATION": 98.3307, "RA_OF_ASC_NODE": 320.5558, "ARG_OF_PERICENTER": 68.1277, "MEAN_ANOMALY": 292.146, "EPHEMERIS_TYPE": 0, "CLASSIFICATION_TYPE": "U", "NORAD_CAT_ID": 31113, "ELEMENT_SET_NO": 999, "REV_AT_EPOCH": 97240, "BSTAR": 6.7405e-05, "MEAN_MOTION_DOT": 1.36e-06, "MEAN_MOTION_DDOT": 0}, "tle": {"line1": "1 31113U 07010A   25335.82620475  .00000136  00000+0  67405-4 0  9994", "line2": "2 31113  98.3307 320.5558 0014618  68.1277 292.1460 14.30958911972407"}}, "geometry": {"type": "Point", "coordinates": [-26.734818604321365, -55.22836548874416]}}, {"type": "Feature", "properties": {"norad_id": 31598, "name": "COSMO-SKYMED 1", "group": "resource", "lat": 56.236530814310576, "lon": -6.32952337670784, "alt_km": 574.2091669427682, "timestamp": "2025-12-02T08:59:32.376112+00:00", "meta": {"OBJECT_NAME": "COSMO-SKYMED 1", "OBJECT_ID": "2007-023A", "EPOCH": "2025-12-01T19:35:58.947072", "MEAN_MOTION": 14.95637522, "ECCENTRICITY": 0.0001531, "INCLINATION": 97.8847, "RA_OF_ASC_NODE": 161.1449, "ARG_OF_PERICENTER": 84.2781, "MEAN_ANOMALY": 275.8614, "EPHEMERIS_TYPE": 0, "CLASSIFICATION_TYPE": "U", "NORAD_CAT_ID": 31598, "ELEMENT_SET_NO": 999, "REV_AT_EPOCH": 27, "BSTAR": 0.0003781, "MEAN_MOTION_DOT": 4.143e-05, "MEAN_MOTION_DDOT": 0}, "tle": {"line1": "1 31598U 07023A   25335.81665448  .00004143  00000+0  37810-3 0  9991", "line2": "2 31598  97.8847 161.1449 0001531  84.2781 275.8614 14.95637522   273"}}, "geometry": {"type": "Point", "coordinates": [-6.32952337670784, 56.236530814310576]}}, {"type": "Feature", "properties": {"norad_id": 31698, "name": "TERRASAR-X", "group": "resource", "lat": -14.513421651911822, "lon": -16.152623296433834, "alt_km": 513.4161855764878, "timestamp": "2025-12-02T08:59:32.376123+00:00", "meta": {"OBJECT_NAME": "TERRASAR-X", "OBJECT_ID": "2007-026A", "EPOCH": "2025-12-01T15:40:02.654400", "MEAN_MOTION": 15.19150274, "ECCENTRICITY": 0.00019062, "INCLINATION": 97.4444, "RA_OF_ASC_NODE": 341.1963, "ARG_OF_PERICENTER": 89.1201, "MEAN_ANOMALY": 271.0252, "EPHEMERIS_TYPE": 0, "CLASSIFICATION_TYPE": "U", "NORAD_CAT_ID": 31698, "ELEMENT_SET_NO": 999, "REV_AT_EPOCH": 2323, "BSTAR": 7.6522775e-05, "MEAN_MOTION_DOT": 1.54e-05, "MEAN_MOTION_DDOT": 0}, "tle": {"line1": "1 31698U 07026A   25335.65280850  .00001540  00000+0  76523-4 0  9990", "line2": "2 31698  97.4444 341.1963 0001906  89.1201 271.0252 15.19150274 23239"}}, "geometry": {"type": "Point", "coordinates": [-16.152623296433834, -14.513421651911822]}}, {"type": "Feature", "properties": {"norad_id": 32060, "name": "WORLDVIEW-1 (WV-1)", "group": "resource", "lat": 34.06208823191289, "lon": -80.96704209355156, "alt_km": 490.1616989709273, "timestamp": "2025-12-02T08:59:32.376133+00:00", "meta": {"OBJECT_NAME": "WORLDVIEW-1 (WV-1)", "OBJECT_ID": "2007-041A", "EPOCH": "2025-12-01T19:45:10.793376", "MEAN_MOTION": 15.24402666, "ECCENTRICITY": 7.48e-05, "INCLINATION": 97.3832, "RA_OF_ASC_NODE": 93.46, "ARG_OF_PERICENTER": 91.8186, "MEAN_ANOMALY": 268.3137, "EPHEMERIS_TYPE": 0, "CLASSIFICATION_TYPE": "U", "NORAD_CAT_ID": 32060, "ELEMENT_SET_NO": 999, "REV_AT_EPOCH": 1281, "BSTAR": 0.00037999, "MEAN_MOTION_DOT": 9.247e-05, "MEAN_MOTION_DDOT": 0}, "tle": {"line1": "1 32060U 07041A   25335.82304159  .00009247  00000+0  37999-3 0  9994", "line2": "2 32060  97.3832  93.4600 0000748  91.8186 268.3137 15.24402666 12817"}}, "geometry": {"type": "Point", "coordinates": [-80.96704209355156, 34.06208823191289]}}]}